P/2007 K2 (Gibbs),e,7.6599,188.6450,347.4956,7.250238,0.0504865,0.68589294,166.2113,06/18.0/2016,2000,g 14.0,4.0
# From MPC 82314
C/2007 K3 (Siding Spring),e,16.3438,263.2333,23.3390,1403,0.0000188,0.99854840,0.0000,04/19.8991/2008,2000,g  9.5,4.0
# From MPC 87475
C/2007 M1 (McNaught),e,139.6776,326.9189,52.6066,1280,0.0000215,0.99416731,0.0000,08/08.1981/2008,2000,g  6.0,4.0
# From MPC 68392
C/2007 M2 (Catalina),e,81.1236,357.2220,220.6684,1306,0.0000209,0.99728927,0.0000,12/09.2744/2008,2000,g  8.0,4.0
# From MPC 73461
C/2007 N3 (Lulin),e,178.3765,338.2034,136.6035,1198,0.0000238,0.99897707,0.0000,01/07.1617/2009,2000,g  6.5,4.0
# From MPC 60925
P/2007 Q2 (Gilmore),e,10.2267,172.2638,163.1404,5.617880,0.0740194,0.66984535,239.6147,06/18.0/2016,2000,g 16.0,4.0
# From MPC 78183
C/2007 Q3 (Siding Spring),h,10/07.7877/2009,65.7231,149.2847,2.2274,1.000434,2.259194,2000,4.5,4.0
# From MPC 75514
P/2007 R1 (Larson),e,7.8722,181.6709,175.2488,6.048843,0.0662515,0.27735463,214.0874,06/18.0/2016,2000,g  8.0,4.0
# From MPC 75708
P/2007 R2 (Gibbs),e,1.3406,10.6888,353.3699,3.519331,0.1492842,0.56324323,132.1013,06/18.0/2016,2000,g 17.0,4.0
# From MPC 82314
P/2007 R3 (Gibbs),e,3.7934,30.0681,312.2042,4.300991,0.1104972,0.41387403,2.3873,06/18.0/2016,2000,g 13.5,4.0
# From MPC 75708
P/2007 R4 (Garradd),e,20.1961,87.3675,283.1057,5.876036,0.0691954,0.66903996,221.2102,06/18.0/2016,2000,g 14.5,4.0
# From MPC 73462
P/2007 S1 (Zhao),e,5.9734,141.5262,245.7517,3.798587,0.1331285,0.34323431,53.9234,06/18.0/2016,2000,g 13.0,4.0
# From MPC 82314
C/2007 S2 (Lemmon),e,16.8707,296.0611,210.5934,12.55674,0.0221508,0.55709516,62.7583,06/18.0/2016,2000,g  6.5,4.0
# From MPC 62270
C/2007 T1 (McNaught),e,117.5300,111.4221,233.7573,1786,0.0000131,0.99945468,0.0000,12/08.3871/2007,2000,g 10.5,4.0
# From MPC 61994
P/2007 T2 (Kowalski),e,9.9608,3.8672,358.6017,3.078608,0.1824621,0.77929838,220.1127,06/18.0/2016,2000,g 18.5,4.0
# From MPC 62879
P/2007 T4 (Gibbs),e,23.8623,37.0771,42.5258,5.241318,0.0821378,0.61821891,267.1349,06/18.0/2016,2000,g 13.0,4.0
# From MPC 65935
C/2007 T5 (Gibbs),e,45.6255,109.7700,34.5166,46.82505,0.0030760,0.91337181,9.0607,06/18.0/2016,2000,g  8.0,4.0
# From MPC 75708
P/2007 T6 (Catalina),e,22.1816,102.5190,335.8920,4.477249,0.1040369,0.50399276,334.7861,06/18.0/2016,2000,g 12.5,4.0
# From MPC 66921
C/2007 U1 (LINEAR),h,08/09.4345/2008,157.7519,50.4059,1.3800,1.001102,3.329587,2000,9.0,4.0
# From MPC 75708
P/2007 V1 (Larson),e,10.7602,7.9355,51.7319,4.972446,0.0888892,0.46228434,276.5948,06/18.0/2016,2000,g 12.0,4.0
# From MPC 75708
P/2007 VQ11 (Catalina),e,12.3261,163.8176,277.8748,5.411777,0.0782878,0.50316585,238.3999,06/18.0/2016,2000,g 12.0,4.0
# From MPC 81468
C/2007 VO53 (Spacewatch),h,04/26.2743/2010,86.9214,59.7098,75.1487,1.001420,4.850766,2000,7.0,4.0
# From MPC 63599
C/2007 W1 (Boattini),e,9.8822,334.8486,306.0739,1109,0.0000267,0.99924006,0.0000,06/22.9832/2008,2000,g  9.5,4.0
# From MPC 63376
C/2007 W3 (LINEAR),e,78.6509,72.8895,112.4345,3383,0.0000050,0.99947977,0.0000,06/04.5720/2008,2000,g 12.0,4.0
# From MPC 62271
C/2007 Y1 (LINEAR),e,110.2051,132.9837,357.2269,7551,0.0000015,0.99955494,0.0000,03/18.4170/2008,2000,g 10.5,4.0
# From MPC 62271
C/2007 Y2 (McNaught),e,98.5530,303.4537,257.7465,1016,0.0000304,0.99586095,0.0000,04/11.4725/2008,2000,g  9.0,4.0
# From MPC 65935
C/2008 A1 (McNaught),e,82.6169,277.8838,348.2615,2698,0.0000070,0.99960584,0.0000,09/27.7568/2008,2000,g  6.5,4.0
# From MPC 62582
C/2008 C1 (Chen-Gao),e,61.9081,307.6586,181.0403,7397,0.0000015,0.99982865,0.0000,04/18.0911/2008,2000,g 10.0,4.0
# From MPC 75708
P/2008 CL94 (Lemmon),e,8.3542,33.3552,81.3830,6.149494,0.0646316,0.12104364,235.2523,06/18.0/2016,2000,g  8.0,4.0
# From MPC 64113
C/2008 E1 (Catalina),e,34.8210,188.8155,270.7391,10.81547,0.0277099,0.55048973,79.4011,06/18.0/2016,2000,g  7.0,4.0
# From MPC 68392
C/2008 E3 (Garradd),e,105.1047,105.7200,217.9777,1162,0.0000249,0.99524370,0.0000,07/29.2696/2008,2000,g  6.0,4.0
# From MPC 88324
C/2008 FK75 (Lemmon-Siding Spring),h,09/29.0203/2010,61.2813,218.2763,80.3909,1.000157,4.507274,2000,5.0,4.0
# From MPC 82314
C/2008 G1 (Gibbs),e,73.0498,215.9206,63.6742,274.9363,0.0002162,0.98549057,0.0000,01/10.7556/2009,2000,g  9.5,4.0
# From MPC 63137
C/2008 H1 (LINEAR),e,75.3826,34.4425,96.0063,50.79416,0.0027226,0.94574635,8.2099,06/18.0/2016,2000,g 10.5,4.0
# From MPC 65054
C/2008 J1 (Boattini),e,61.7950,273.4917,68.1663,157.5168,0.0004986,0.98899135,0.0000,07/09.2159/2008,2000,g 10.0,4.0
# From MPC 75709
P/2008 J3 (McNaught),e,25.3507,9.8102,4.5716,3.905371,0.1277058,0.41057659,339.8294,06/18.0/2016,2000,g 12.0,4.0
# From MPC 63376
C/2008 J5 (Garradd),e,93.2996,287.1047,313.0495,68.19787,0.0017500,0.97152339,0.0000,04/01.9792/2008,2000,g 12.0,4.0
# From MPC 82314
C/2008 J6 (Hill),h,04/08.1531/2008,44.9594,298.2521,10.5513,1.000819,1.998765,2000,10.5,4.0
# From MPC 75709
P/2008 L2 (Hill),e,25.8292,218.0194,141.4043,6.020527,0.0667194,0.61184879,191.4414,06/18.0/2016,2000,g 12.5,4.0
# From MPC 68902
C/2008 N1 (Holmes),e,115.3881,357.3426,100.7052,864.1000,0.0000388,0.99677498,0.0000,09/23.3302/2009,2000,g  9.0,4.0
# From MPC 75709
P/2008 O2 (McNaught),e,9.5132,325.8461,27.0729,4.493595,0.1034697,0.15099746,271.5338,06/18.0/2016,2000,g  9.0,4.0
# From MPC 64114
P/2008 O3 (Boattini),e,32.2008,47.6232,341.2398,8.238063,0.0416837,0.69351638,122.6804,06/18.0/2016,2000,g 13.0,4.0
# From MPC 82314
C/2008 P1 (Garradd),e,64.2444,357.8128,11.8124,6839,0.0000017,0.99943001,0.0000,07/20.7742/2009,2000,g  7.0,4.0
# From MPC 65935
C/2008 Q1 (Maticic),e,118.5078,9.1289,104.2808,552.7573,0.0000758,0.99465127,0.0000,12/27.7756/2008,2000,g 10.0,4.0
# From MPC 80896
C/2008 Q3 (Garradd),e,140.7986,219.5224,340.5954,1238,0.0000226,0.99854558,0.0000,06/20.1618/2009,2000,g 10.0,4.0
# From MPC 75709
P/2008 QP20 (LINEAR-Hill),e,7.7369,324.9651,72.4630,3.495706,0.1508002,0.50659909,59.9445,06/18.0/2016,2000,g 15.5,4.0
# From MPC 64115
C/2008 R3 (LINEAR),e,43.2345,270.6378,84.2220,18.29938,0.0125907,0.89495313,34.8644,06/18.0/2016,2000,g 13.0,4.0
# From MPC 95207
C/2008 S3 (Boattini),h,06/09.8787/2011,162.6997,55.0416,40.1413,1.003550,8.012364,2000,4.0,4.0
# From MPC 82717
P/2008 T1 (Boattini),e,2.0787,291.7422,35.8040,4.249636,0.1125062,0.27923326,342.7573,06/18.0/2016,2000,g 11.0,4.0
# From MPC 66921
C/2008 T2 (Cardinal),h,06/15.3424/2009,56.3870,309.6575,215.8506,1.000118,1.198922,2000,6.0,4.0
# From MPC 75710
P/2008 T4 (Hill),e,6.3091,44.6175,1.6199,4.463137,0.1045307,0.43425936,285.7002,06/18.0/2016,2000,g 13.5,4.0
# From MPC 66204
P/2008 WZ96 (LINEAR),e,6.9593,58.9376,338.0896,3.365676,0.1596231,0.51010321,71.7866,06/18.0/2016,2000,g 13.5,4.0
# From MPC 65057
C/2008 X3 (LINEAR),e,66.5020,337.5073,140.9562,43.61079,0.0034223,0.95616196,9.6102,06/18.0/2016,2000,g 13.0,4.0
# From MPC 65935
P/2008 Y1 (Boattini),e,8.9201,259.3368,162.8147,4.801869,0.0936674,0.73600639,249.5106,06/18.0/2016,2000,g 15.0,4.0
# From MPC 75710
P/2008 Y3 (McNaught),e,38.8050,262.8387,238.3586,8.032946,0.0432904,0.44817058,117.4180,06/18.0/2016,2000,g  8.5,4.0
# From MPC 88693
P/2008 Y12 (SOHO),e,23.5764,309.8525,144.3222,3.076666,0.1826348,0.97806932,0.0000,05/17.8642/2014,2000,g  9.0,4.0
# From MPC 75710
P/2009 B1 (Boattini),e,22.2296,297.0589,129.1871,6.725015,0.0565151,0.63562967,152.2086,06/18.0/2016,2000,g 13.0,4.0
# From MPC 82315
C/2009 B2 (LINEAR),e,156.9499,18.7153,192.4684,40.46853,0.0038285,0.94204940,10.1959,06/18.0/2016,2000,g 12.5,4.0
# From MPC 72850
C/2009 E1 (Itagaki),e,127.4486,105.9340,48.8678,40.36305,0.0038435,0.98528410,0.0000,04/10.0184/2009,2000,g 11.5,4.0
# From MPC 82315
C/2009 F1 (Larson),e,171.4049,357.9617,219.8542,95.84058,0.0010505,0.98068235,0.0000,06/24.4945/2009,2000,g 15.0,4.0
# From MPC 80256
C/2009 F2 (McNaught),e,59.3371,213.9262,336.3493,349.3641,0.0001509,0.98318690,0.0000,11/13.9110/2009,2000,g  6.0,4.0
# From MPC 95208
C/2009 F4 (McNaught),e,79.4204,53.5586,260.3850,6158,0.0000020,0.99911421,0.0000,12/31.6093/2011,2000,g  3.0,4.0
# From MPC 66204
C/2009 F5 (McNaught),e,84.9472,218.8194,297.2398,78.51122,0.0014168,0.97149835,0.0000,11/04.8458/2008,2000,g 10.0,4.0
# From MPC 72850
C/2009 F6 (Yi-SWAN),e,85.7124,278.7403,129.9936,508.6887,0.0000859,0.99746343,0.0000,05/05.5524/2009,2000,g  6.0,4.0
# From MPC 66466
C/2009 G1 (STEREO),e,108.2638,120.7262,175.3008,398.5128,0.0001239,0.99718815,0.0000,04/14.8619/2009,2000,g  9.0,4.0
# From MPC 67147
P/2009 K1 (Gibbs),e,5.7439,172.7709,27.4339,3.692085,0.1389302,0.63713166,354.9444,06/18.0/2016,2000,g 17.0,4.0
# From MPC 82315
C/2009 K2 (Catalina),e,66.8275,123.8024,147.4705,829.0678,0.0000413,0.99610699,0.0000,02/07.7246/2010,2000,g 10.0,4.0
# From MPC 66703
C/2009 K4 (Gibbs),e,34.8370,29.8048,127.6469,42.18543,0.0035972,0.96337227,9.1872,06/18.0/2016,2000,g 13.0,4.0
# From MPC 82315
C/2009 K5 (McNaught),e,104.1041,257.9809,66.1940,1725,0.0000138,0.99917206,0.0000,04/27.7070/2010,2000,g  7.5,4.0
# From MPC 69905
C/2009 O2 (Catalina),e,107.9544,310.1497,133.5637,255.2343,0.0002417,0.99723443,0.0000,03/23.4589/2010,2000,g 11.0,4.0
# From MPC 75710
P/2009 O3 (Hill),e,16.2086,183.8267,154.3656,7.788284,0.0453462,0.68466683,117.6327,06/18.0/2016,2000,g 12.5,4.0
# From MPC 67147
C/2009 O4 (Hill),h,12/30.2962/2009,95.6423,172.9939,223.7274,1.000395,2.564828,2000,10.0,4.0
# From MPC 89309
C/2009 P1 (Garradd),e,106.1806,326.0133,90.7730,9095,0.0000011,0.99982887,0.0000,12/22.0571/2011,2000,g  4.0,4.0
# From MPC 76024
C/2009 P2 (Boattini),h,02/12.0773/2010,163.4298,60.4911,76.2342,1.001860,6.534625,2000,6.0,4.0
# From MPC 75710
P/2009 Q1 (Hill),e,14.5005,173.9442,157.3373,5.513390,0.0761335,0.49383260,194.6926,06/18.0/2016,2000,g 11.5,4.0
# From MPC 72850
P/2009 Q4 (Boattini),e,10.9794,127.5799,320.1007,3.135148,0.1775485,0.58022501,65.8065,06/18.0/2016,2000,g 15.5,4.0
# From MPC 68902
P/2009 Q5 (McNaught),e,40.8557,160.1781,209.2351,7.452827,0.0484420,0.60685975,120.1845,06/18.0/2016,2000,g 10.0,4.0
# From MPC 82315
